[{"OBJECT_NAME":"STARLINK-31909","OBJECT_ID":"2024-084K","EPOCH":"2026-03-09T22:10:01.074720","MEAN_MOTION":15.27588132,"ECCENTRICITY":0.00023834,"INCLINATION":43.0074,"RA_OF_ASC_NODE":40.1087,"ARG_OF_PERICENTER":233.3616,"MEAN_ANOMALY":126.7017,"EPHEMERIS_TYPE":0,"CLASSIFICATION_TYPE":"U","NORAD_CAT_ID":59663,"ELEMENT_SET_NO":999,"REV_AT_EPOCH":10441,"BSTAR":-3.5387704e-5,"MEAN_MOTION_DOT":-1.237e-5,"MEAN_MOTION_DDOT":0},{"OBJECT_NAME":"NUSAT-48 (HENRIETTA LEAVITT)","OBJECT_ID":"2024-149AG","EPOCH":"2026-03-09T19:19:17.269536","MEAN_MOTION":15.29812597,"ECCENTRICITY":0.00027538,"INCLINATION":97.3923,"RA_OF_ASC_NODE":150.8264,"ARG_OF_PERICENTER":263.3026,"MEAN_ANOMALY":96.7901,"EPHEMERIS_TYPE":0,"CLASSIFICATION_TYPE":"U","NORAD_CAT_ID":60498,"ELEMENT_SET_NO":999,"REV_AT_EPOCH":8694,"BSTAR":0.00045211745,"MEAN_MOTION_DOT":0.00012988,"MEAN_MOTION_DDOT":0}]
